{"type": "FeatureCollection", "features": [ {"type": "Feature", "properties": {"norad_id": 54234, "name": "NOAA 21 (JPSS-2)", "group": "weather", "lat": -33.66944258992985, "lon": -74.06218729332117, "alt_km": 832.7298824906911, "timestamp": "2025-12-09T16:56:36.222784+00:00", "meta": {"OBJECT_NAME": "NOAA 21 (JPSS-2)", "OBJECT_ID": "2022-150A", "EPOCH": "2025-12-09T10:20:13.632576", "MEAN_MOTION": 14.19522925, "ECCENTRICITY": 0.0002346, "INCLINATION": 98.7458, "RA_OF_ASC_NODE": 279.7803, "ARG_OF_PERICENTER": 44.497, "MEAN_ANOMALY": 315.6395, "EPHEMERIS_TYPE": 0, "CLASSIFICATION_TYPE": "U", "NORAD_CAT_ID": 54234, "ELEMENT_SET_NO": 999, "REV_AT_EPOCH": 15962, "BSTAR": 0.00012401, "MEAN_MOTION_DOT": 2.17e-06, "MEAN_MOTION_DDOT": 0}, "tle": {"line1": "1 54234U 22150A   25343.43071334  .00000217  00000+0  12401-3 0  9990", "line2": "2 54234  98.7458 279.7803 0002346  44.4970 315.6395 14.19522925159625"}}, "geometry": {"type": "Point", "coordinates": [-74.06218729332117, -33.66944258992985]}}, {"type": "Feature", "properties": {"norad_id": 54743, "name": "METEOSAT-12 (MTG-I1)", "group": "weather", "lat": -0.6230626837477355, "lon": -27.355889516502227, "alt_km": 35783.890444091594, "timestamp": "2025-12-09T16:56:36.222796+00:00", "meta": {"OBJECT_NAME": "METEOSAT-12 (MTG-I1)", "OBJECT_ID": "2022-170C", "EPOCH": "2025-12-09T06:50:38.879808", "MEAN_MOTION": 1.00275177, "ECCENTRICITY": 0.0001445, "INCLINATION": 0.7267, "RA_OF_ASC_NODE": 31.0604, "ARG_OF_PERICENTER": 223.8448, "MEAN_ANOMALY": 285.8144, "EPHEMERIS_TYPE": 0, "CLASSIFICATION_TYPE": "U", "NORAD_CAT_ID": 54743, "ELEMENT_SET_NO": 999, "REV_AT_EPOCH": 1107, "BSTAR": 0, "MEAN_MOTION_DOT": -4e-08, "MEAN_MOTION_DDOT": 0}, "tle": {"line1": "1 54743U 22170C   25343.28517222 -.00000004  00000+0  00000+0 0  9994", "line2": "2 54743   0.7267  31.0604 0001445 223.8448 285.8144  1.00275177 11077"}}, "geometry": {"type": "Point", "coordinates": [-27.355889516502227, -0.6230626837477355]}}, {"type": "Feature", "properties": {"norad_id": 55973, "name": "TIANMU-1 03", "group": "weather", "lat": 8.579658143287082, "lon": 145.13253573249216, "alt_km": 444.2159526813175, "timestamp": "2025-12-09T16:56:36.222807+00:00", "meta": {"OBJECT_NAME": "TIANMU-1 03", "OBJECT_ID": "2023-039A", "EPOCH": "2025-12-09T12:13:47.859744", "MEAN_MOTION": 15.40775627, "ECCENTRICITY": 0.0004497, "INCLINATION": 97.5112, "RA_OF_ASC_NODE": 146.0714, "ARG_OF_PERICENTER": 70.1163, "MEAN_ANOMALY": 290.0567, "EPHEMERIS_TYPE": 0, "CLASSIFICATION_TYPE": "U", "NORAD_CAT_ID": 55973, "ELEMENT_SET_NO": 999, "REV_AT_EPOCH": 15156, "BSTAR": 0.0005115, "MEAN_MOTION_DOT": 0.00020885, "MEAN_MOTION_DDOT": 0}, "tle": {"line1": "1 55973U 23039A   25343.50958171  .00020885  00000+0  51150-3 0  9996", "line2": "2 55973  97.5112 146.0714 0004497  70.1163 290.0567 15.40775627151562"}}, "geometry": {"type": "Point", "coordinates": [145.13253573249216, 8.579658143287082]}}, {"type": "Feature", "properties": {"norad_id": 55974, "name": "TIANMU-1 04", "group": "weather", "lat": 59.90294198547213, "lon": -21.388455049117546, "alt_km": 434.97685966229346, "timestamp": "2025-12-09T16:56:36.222818+00:00", "meta": {"OBJECT_NAME": "TIANMU-1 04", "OBJECT_ID": "2023-039B", "EPOCH": "2025-12-09T11:45:12.686688", "MEAN_MOTION": 15.41109371, "ECCENTRICITY": 0.0005177, "INCLINATION": 97.5044, "RA_OF_ASC_NODE": 145.2433, "ARG_OF_PERICENTER": 65.6466, "MEAN_ANOMALY": 294.5321, "EPHEMERIS_TYPE": 0, "CLASSIFICATION_TYPE": "U", "NORAD_CAT_ID": 55974, "ELEMENT_SET_NO": 999, "REV_AT_EPOCH": 15156, "BSTAR": 0.00050493, "MEAN_MOTION_DOT": 0.00020847, "MEAN_MOTION_DDOT": 0}, "tle": {"line1": "1 55974U 23039B   25343.48973017  .00020847  00000+0  50493-3 0  9997", "line2": "2 55974  97.5044 145.2433 0005177  65.6466 294.5321 15.41109371151562"}}, "geometry": {"type": "Point", "coordinates": [-21.388455049117546, 59.90294198547213]}}, {"type": "Feature", "properties": {"norad_id": 55975, "name": "TIANMU-1 05", "group": "weather", "lat": 24.474467163810125, "lon": -30.599987331360566, "alt_km": 442.3198291965773, "timestamp": "2025-12-09T16:56:36.222828+00:00", "meta": {"OBJECT_NAME": "TIANMU-1 05", "OBJECT_ID": "2023-039C", "EPOCH": "2025-12-09T11:35:46.658688", "MEAN_MOTION": 15.40732746, "ECCENTRICITY": 0.0004373, "INCLINATION": 97.5091, "RA_OF_ASC_NODE": 145.7289, "ARG_OF_PERICENTER": 86.8084, "MEAN_ANOMALY": 273.3662, "EPHEMERIS_TYPE": 0, "CLASSIFICATION_TYPE": "U", "NORAD_CAT_ID": 55975, "ELEMENT_SET_NO": 999, "REV_AT_EPOCH": 15154, "BSTAR": 0.00051025, "MEAN_MOTION_DOT": 0.00020804, "MEAN_MOTION_DDOT": 0}, "tle": {"line1": "1 55975U 23039C   25343.48317892  .00020804  00000+0  51025-3 0  9996", "line2": "2 55975  97.5091 145.7289 0004373  86.8084 273.3662 15.40732746151545"}}, "geometry": {"type": "Point", "coordinates": [-30.599987331360566, 24.474467163810125]}}, {"type": "Feature", "properties": {"norad_id": 55976, "name": "TIANMU-1 06", "group": "weather", "lat": 71.86371955402328, "lon": -9.828410296185968, "alt_km": 432.83968248433393, "timestamp": "2025-12-09T16:56:36.222838+00:00", "meta": {"OBJECT_NAME": "TIANMU-1 06", "OBJECT_ID": "2023-039D", "EPOCH": "2025-12-09T11:48:30.090816", "MEAN_MOTION": 15.41161801, "ECCENTRICITY": 0.0004699, "INCLINATION": 97.5102, "RA_OF_ASC_NODE": 146.2003, "ARG_OF_PERICENTER": 82.4111, "MEAN_ANOMALY": 277.7669, "EPHEMERIS_TYPE": 0, "CLASSIFICATION_TYPE": "U", "NORAD_CAT_ID": 55976, "ELEMENT_SET_NO": 999, "REV_AT_EPOCH": 15156, "BSTAR": 0.00050282, "MEAN_MOTION_DOT": 0.00020794, "MEAN_MOTION_DDOT": 0}, "tle": {"line1": "1 55976U 23039D   25343.49201494  .00020794  00000+0  50282-3 0  9990", "line2": "2 55976  97.5102 146.2003 0004699  82.4111 277.7669 15.41161801151569"}}, "geometry": {"type": "Point", "coordinates": [-9.828410296185968, 71.86371955402328]}}, {"type": "Feature", "properties": {"norad_id": 56232, "name": "FENGYUN 3G", "group": "weather", "lat": 20.75123695426625, "lon": -98.3374576792834, "alt_km": 406.1822521150525, "timestamp": "2025-12-09T16:56:36.222868+00:00", "meta": {"OBJECT_NAME": "FENGYUN 3G", "OBJECT_ID": "2023-055A", "EPOCH": "2025-12-09T10:38:58.874208", "MEAN_MOTION": 15.53340632, "ECCENTRICITY": 0.000927, "INCLINATION": 49.9935, "RA_OF_ASC_NODE": 244.4601, "ARG_OF_PERICENTER": 132.8049, "MEAN_ANOMALY": 227.3699, "EPHEMERIS_TYPE": 0, "CLASSIFICATION_TYPE": "U", "NORAD_CAT_ID": 56232, "ELEMENT_SET_NO": 999, "REV_AT_EPOCH": 15051, "BSTAR": 0.00062055, "MEAN_MOTION_DOT": 0.00039768, "MEAN_MOTION_DDOT": 0}, "tle": {"line1": "1 56232U 23055A   25343.44373697  .00039768  00000+0  62055-3 0  9996", "line2": "2 56232  49.9935 244.4601 0009270 132.8049 227.3699 15.53340632150517"}}, "geometry": {"type": "Point", "coordinates": [-98.3374576792834, 20.75123695426625]}}, {"type": "Feature", "properties": {"norad_id": 57166, "name": "METEOR-M2 3", "group": "weather", "lat": -3.592552769396388, "lon": -143.2486198411046, "alt_km": 818.0101801580231, "timestamp": "2025-12-09T16:56:36.222881+00:00", "meta": {"OBJECT_NAME": "METEOR-M2 3", "OBJECT_ID": "2023-091A", "EPOCH": "2025-12-09T12:42:42.484032", "MEAN_MOTION": 14.24025583, "ECCENTRICITY": 0.0004093, "INCLINATION": 98.6382, "RA_OF_ASC_NODE": 37.125, "ARG_OF_PERICENTER": 17.6485, "MEAN_ANOMALY": 342.4835, "EPHEMERIS_TYPE": 0, "CLASSIFICATION_TYPE": "U", "NORAD_CAT_ID": 57166, "ELEMENT_SET_NO": 999, "REV_AT_EPOCH": 12752, "BSTAR": 4.2402e-05, "MEAN_MOTION_DOT": 5.4e-07, "MEAN_MOTION_DDOT": 0}, "tle": {"line1": "1 57166U 23091A   25343.52965838  .00000054  00000+0  42402-4 0  9997", "line2": "2 57166  98.6382  37.1250 0004093  17.6485 342.4835 14.24025583127528"}}, "geometry": {"type": "Point", "coordinates": [-143.2486198411046, -3.592552769396388]}}, {"type": "Feature", "properties": {"norad_id": 57399, "name": "TIANMU-1 07", "group": "weather", "lat": -43.17480036046757, "lon": 40.51871231360026, "alt_km": 491.1281488135792, "timestamp": "2025-12-09T16:56:36.222892+00:00", "meta": {"OBJECT_NAME": "TIANMU-1 07", "OBJECT_ID": "2023-101A", "EPOCH": "2025-12-09T12:25:08.111136", "MEAN_MOTION": 15.27997946, "ECCENTRICITY": 0.0005641, "INCLINATION": 97.2877, "RA_OF_ASC_NODE": 33.4382, "ARG_OF_PERICENTER": 89.7174, "MEAN_ANOMALY": 270.4712, "EPHEMERIS_TYPE": 0, "CLASSIFICATION_TYPE": "U", "NORAD_CAT_ID": 57399, "ELEMENT_SET_NO": 999, "REV_AT_EPOCH": 13266, "BSTAR": 0.00038028, "MEAN_MOTION_DOT": 0.00010323, "MEAN_MOTION_DDOT": 0}, "tle": {"line1": "1 57399U 23101A   25343.51745499  .00010323  00000+0  38028-3 0  9993", "line2": "2 57399  97.2877  33.4382 0005641  89.7174 270.4712 15.27997946132660"}}, "geometry": {"type": "Point", "coordinates": [40.51871231360026, -43.17480036046757]}}, {"type": "Feature", "properties": {"norad_id": 57400, "name": "TIANMU-1 08", "group": "weather", "lat": 41.003571100740004, "lon": -140.19200550083542, "alt_km": 475.0736784914934, "timestamp": "2025-12-09T16:56:36.222903+00:00", "meta": {"OBJECT_NAME": "TIANMU-1 08", "OBJECT_ID": "2023-101B", "EPOCH": "2025-12-09T11:37:29.175744", "MEAN_MOTION": 15.27981758, "ECCENTRICITY": 0.0007553, "INCLINATION": 97.2865, "RA_OF_ASC_NODE": 33.2044, "ARG_OF_PERICENTER": 92.8742, "MEAN_ANOMALY": 267.3363, "EPHEMERIS_TYPE": 0, "CLASSIFICATION_TYPE": "U", "NORAD_CAT_ID": 57400, "ELEMENT_SET_NO": 999, "REV_AT_EPOCH": 13265, "BSTAR": 0.00039833, "MEAN_MOTION_DOT": 0.00010816, "MEAN_MOTION_DDOT": 0}, "tle": {"line1": "1 57400U 23101B   25343.48436546  .00010816  00000+0  39833-3 0  9994", "line2": "2 57400  97.2865  33.2044 0007553  92.8742 267.3363 15.27981758132653"}}, "geometry": {"type": "Point", "coordinates": [-140.19200550083542, 41.003571100740004]}}]}